DIDO-2                  
1 42000U 17008BE  23356.93234486  .00051173  00000+0  86627-3 0  9998
2 42000  97.1750  51.0638 0005960  72.5801 287.6103 15.51383709381071
AALTO-1                 
1 42775U 17036L   23356.64026480  .00040714  00000+0  83976-3 0  9992
2 42775  97.1319  22.2170 0008907 130.0078 230.1955 15.45730886361523
URSA MAIOR              
1 42776U 17036M   23356.03460597  .00046586  00000+0  82804-3 0  9999
2 42776  97.1315  23.7598 0008465 125.0944 235.1103 15.50004164361557
DIAMOND RED             
1 42783U 17036U   23356.61345504  .00079393  00000+0  10760-2 0  9994
2 42783  97.1241  28.8304 0005991 121.2299 238.9545 15.57393220361930
PEGASUS                 
1 42784U 17036V   23356.85865750  .00577817  13481-3  17163-2 0  9990
2 42784  97.1101  35.4892 0002545  98.8151 261.3412 15.92485750362416
DIAMOND GREEN           
1 42785U 17036W   23356.81845304  .00104724  00000+0  12187-2 0  9993
2 42785  97.1215  29.7655 0005883 116.6100 243.5761 15.61341482362088
DIAMOND BLUE            
1 42786U 17036X   23356.91285080  .00084822  00000+0  10779-2 0  9995
2 42786  97.1253  29.5290 0006385 115.6260 244.5657 15.59091600362073
CICERO 6                
1 42793U 17036AE  23356.09511233  .00050913  00000+0  83376-3 0  9992
2 42793  97.1231  27.6079 0006562 119.8391 240.3516 15.52311541361900
CORVUS BC2              
1 42846U 17042X   23356.50109278  .00004084  00000+0  36851-3 0  9990
2 42846  97.3733 186.7093 0007379 306.2579  53.7961 14.96015927350867
CORVUS BC1              
1 42847U 17042Y   23356.47932543  .00004933  00000+0  44282-3 0  9996
2 42847  97.3715 187.0641 0007022 303.7926  56.2627 14.96134446350870
MIRATA                  
1 43015U 17073C   23356.21243015  .00017443  00000+0  96726-3 0  9999
2 43015  97.6066 238.9999 0192916 144.5010 216.9231 14.99275200329592
MAKERSAT 0              
1 43016U 17073D   23356.63494343  .00013221  00000+0  82124-3 0  9995
2 43016  97.6065 235.9987 0212319 157.1828 203.9002 14.92906532329384
CORVUS BC3              
1 43118U 18004H   23356.73835738  .00061317  00000+0  10164-2 0  9994
2 43118  97.3077  72.2186 0004992 161.1583 198.9855 15.51936853331139
GOMX-4B                 
1 43196U 18015E   23356.39890996  .00034863  00000+0  71878-3 0  9997
2 43196  97.5930 154.3184 0010526 247.5910 112.4224 15.45762695327925
GOMX-4A                 
1 43197U 18015F   23356.89046286  .00044057  00000+0  76580-3 0  9999
2 43197  97.5901 158.0811 0009497 237.9621 122.0708 15.50641798328223
CUBEBEL-1 (BSUSAT-1)    
1 43666U 18083E   23356.86754786  .00132907  00000+0  15082-2 0  9994
2 43666  97.3537  31.8675 0006147 134.2491 225.9272 15.61899480286379
CICERO 10               
1 43690U 18088A   23356.91127421  .00050463  00000+0  96429-3 0  9993
2 43690  85.0253 303.9360 0004526 215.9120 144.1832 15.47893716284567
PROXIMA I               
1 43694U 18088E   23356.94221584  .00070090  00000+0  10598-2 0  9995
2 43694  85.0168 298.5541 0008350 163.6216 196.5315 15.54404331284937
PROXIMA II              
1 43696U 18088G   23356.85106320  .00071699  00000+0  10975-2 0  9992
2 43696  85.0175 298.7153 0008387 165.0370 195.1139 15.54061398284903
SIRION PATHFINDER-2     
1 43759U 18099B   23356.90052592  .00006411  00000+0  51292-3 0  9999
2 43759  97.5458  53.1212 0012897 169.3379 190.8121 15.00464907275908
CORVUS BC4              
1 43767U 18099K   23356.72893726  .00005369  00000+0  43615-3 0  9991
2 43767  97.5463  50.6483 0008837 213.0171 147.0502 14.99985014275777
MOVE-II                 
1 43780U 18099Y   23356.66511254  .00018854  00000+0  11985-2 0  9999
2 43780  97.5489  57.0777 0007094 223.9024 136.1641 15.08852586276107
SPACEBEE-7              
1 43816U 18099BL  23356.73205964  .00015227  00000+0  10348-2 0  9998
2 43816  97.5757  58.1012 0011272 172.2471 187.8933 15.06399134275653
SPACEBEE-5              
1 43817U 18099BM  23356.75328541  .00189295  00000+0  39132-2 0  9997
2 43817  97.5668  71.9265 0001502 175.4222 184.7040 15.45092223276481
SPACEBEE-6              
1 43818U 18099BN  23356.16698586  .00021999  00000+0  12571-2 0  9996
2 43818  97.5681  60.7322 0010379 183.7109 176.4047 15.12667239275916
SHIELDS 1               
1 43850U 18104B   23356.60424646  .00013154  00000+0  41674-3 0  9993
2 43850  85.0259  43.1103 0012734  28.0934 332.0998 15.32514077278923
STF-1                   
1 43852U 18104D   23356.59515935  .00162317  00000+0  13636-2 0  9997
2 43852  85.0125  36.3552 0004224  27.0610 333.0877 15.69394199279631
ZACUBE-2                
1 43907U 18111AH  23356.88169237  .00086958  00000+0  11541-2 0  9997
2 43907  97.1022 233.5365 0007801 236.8958 123.1550 15.57913667278330
LUME 1                  
1 43908U 18111AJ  23356.68412964  .00183998  00000+0  12371-2 0  9998
2 43908  97.1027 239.5653 0004051 188.8501 171.2694 15.74633481278713
SONATE                  
1 44400U 19038Q   23356.91033130  .00019064  00000+0  72660-3 0  9995
2 44400  97.7025 339.3404 0019394  18.4825 341.7114 15.26574720246972
LUCKY-7                 
1 44406U 19038W   23356.92110721  .00028413  00000+0  92571-3 0  9995
2 44406  97.6963 341.6306 0016966  11.1354 349.0259 15.31657019247133
BEESAT 9                
1 44412U 19038AC  23356.92218499  .00060757  00000+0  12876-2 0  9999
2 44412  97.6852 345.7281 0011861   6.8329 353.3078 15.44806786247134
JAISAT-1                
1 44419U 19038F   23356.91311372  .00058358  00000+0  12389-2 0  9992
2 44419  97.6837 346.8365 0011109   4.3320 355.8022 15.44775975247511
DUCHIFAT-3              
1 44854U 19089C   23356.49653414  .00015148  00000+0  90398-3 0  9997
2 44854  36.9612  42.5333 0006688  79.3921 280.7578 15.10491071221273
M2 PATHFINDER           
1 45727U 20037E   23356.03892843  .00004707  00000+0  42925-3 0  9995
2 45727  97.7637 168.7438 0011772   6.5909 353.5465 14.95538946189306
NETSAT-4                
1 46504U 20068U   23356.82107383  .00012271  00000+0  73920-3 0  9992
2 46504  97.7848 305.0461 0008679 245.6074 114.4250 15.10914184177355
NETSAT-3                
1 46505U 20068V   23356.81927739  .00011090  00000+0  67510-3 0  9993
2 46505  97.7824 304.7398 0007809 255.9002 104.1359 15.10563699177351
NETSAT-1                
1 46506U 20068W   23356.86020594  .00008341  00000+0  52052-3 0  9992
2 46506  97.7849 304.5433 0006308 268.2715  91.7791 15.09753641177344
NETSAT-2                
1 46507U 20068X   23356.82821656  .00011475  00000+0  69349-3 0  9996
2 46507  97.7830 304.7439 0005638 276.7985  83.2602 15.10830488177301
WILDTRACKCUBE-SIMBA     
1 47941U 21022K   23356.86055136  .00014029  00000+0  72658-3 0  9991
2 47941  97.4793 250.7412 0019019  46.8305 313.4513 15.16157012151559
BEESAT-6                
1 47957U 21022AB  23355.94712478  .00053712  00000+0  17588-2 0  9997
2 47957  97.4721 254.4531 0014913  37.5005 322.7274 15.31376651151536
SMOG-1                  
1 47964U 21022AJ  23356.70345166  .00052657  00000+0  16414-2 0  9990
2 47964  97.4818 257.9044 0012866  22.4333 337.7469 15.32989246150824
BCCSAT-1                
1 48041U 21022AK  23356.71868705  .00041532  00000+0  14881-2 0  9993
2 48041  97.4811 255.9475 0011686  25.8167 334.3654 15.28555682150671
BEESAT-5                
1 48083U 21022AM  23354.95460593  .00065597  00000+0  19774-2 0  9999
2 48083  97.4562 253.9469 0014272  39.4181 320.8097 15.33972597150576
BEESAT-7                
1 48084U 21022AN  23355.66737227  .00054033  00000+0  17416-2 0  9994
2 48084  97.4770 254.4728 0016535  34.8144 325.4175 15.31857947150234
BEESAT-8                
1 48085U 21022AP  23354.64824007  .00022446  00000+0  98341-3 0  9995
2 48085  97.4831 251.3714 0018838  62.9152 297.4003 15.21859173150480
LEDSAT                  
1 49069U 21073D   23356.74351513  .00017545  00000+0  84440-3 0  9993
2 49069  97.4629  64.7430 0021622 182.7129 177.3991 15.18625824129476
